{
  "type": "FeatureCollection",
  "features": [
    {
      "type": "Feature",
      "properties": {
        "norad_id": 30654,
        "name": "FENGYUN 1C DEB",
        "group": "fengyun-1c-debris",
        "lat": -10.455272795181783,
        "lon": 89.25563107028431,
        "alt_km": 842.1045461655331,
        "timestamp": "2025-12-13T16:48:32.988168+00:00",
        "meta_object_name": "FENGYUN 1C DEB",
        "meta_object_id": "1999-025APL",
        "meta_epoch": "2025-12-12T17:53:16.701216",
        "meta_mean_motion": 14.17098967,
        "meta_eccentricity": 0.00352625,
        "meta_inclination": 99.2406,
        "meta_ra_of_asc_node": 269.9852,
        "meta_arg_of_pericenter": 96.6594,
        "meta_mean_anomaly": 263.8594,
        "meta_ephemeris_type": 0,
        "meta_classification_type": "U",
        "meta_norad_cat_id": 30654,
        "meta_element_set_no": 999,
        "meta_rev_at_epoch": 96680,
        "meta_bstar": 0.0016889097,
        "meta_mean_motion_dot": 3.375e-05,
        "meta_mean_motion_ddot": 0,
        "tle_line1": "1 30654U 99025APL 25346.74533219  .00003375  00000+0  16889-2 0  9998",
        "tle_line2": "2 30654  99.2406 269.9852 0035262  96.6594 263.8594 14.17098967966806"
      },
      "geometry": {
        "type": "Point",
        "coordinates": [
          89.25563107028431,
          -10.455272795181783
        ]
      }
    },
    {
      "type": "Feature",
      "properties": {
        "norad_id": 30656,
        "name": "FENGYUN 1C DEB",
        "group": "fengyun-1c-debris",
        "lat": 74.07197036723772,
        "lon": 128.04250349318858,
        "alt_km": 712.3661607639133,
        "timestamp": "2025-12-13T16:48:32.988178+00:00",
        "meta_object_name": "FENGYUN 1C DEB",
        "meta_object_id": "1999-025APN",
        "meta_epoch": "2025-12-12T17:11:45.778848",
        "meta_mean_motion": 14.45326884,
        "meta_eccentricity": 0.0030254,
        "meta_inclination": 99.0185,
        "meta_ra_of_asc_node": 160.8125,
        "meta_arg_of_pericenter": 86.5117,
        "meta_mean_anomaly": 273.9532,
        "meta_ephemeris_type": 0,
        "meta_classification_type": "U",
        "meta_norad_cat_id": 30656,
        "meta_element_set_no": 999,
        "meta_rev_at_epoch": 97085,
        "meta_bstar": 0.0037566235,
        "meta_mean_motion_dot": 0.00013247,
        "meta_mean_motion_ddot": 0,
        "tle_line1": "1 30656U 99025APN 25346.71650207  .00013247  00000+0  37566-2 0  9998",
        "tle_line2": "2 30656  99.0185 160.8125 0030254  86.5117 273.9532 14.45326884970854"
      },
      "geometry": {
        "type": "Point",
        "coordinates": [
          128.04250349318858,
          74.07197036723772
        ]
      }
    },
    {
      "type": "Feature",
      "properties": {
        "norad_id": 30657,
        "name": "FENGYUN 1C DEB",
        "group": "fengyun-1c-debris",
        "lat": 9.589578038903332,
        "lon": -92.73738814089292,
        "alt_km": 775.9990540586105,
        "timestamp": "2025-12-13T16:48:32.988188+00:00",
        "meta_object_name": "FENGYUN 1C DEB",
        "meta_object_id": "1999-025APP",
        "meta_epoch": "2025-12-12T18:55:29.440416",
        "meta_mean_motion": 14.38600658,
        "meta_eccentricity": 0.00160407,
        "meta_inclination": 98.8339,
        "meta_ra_of_asc_node": 84.819,
        "meta_arg_of_pericenter": 344.2907,
        "meta_mean_anomaly": 146.1652,
        "meta_ephemeris_type": 0,
        "meta_classification_type": "U",
        "meta_norad_cat_id": 30657,
        "meta_element_set_no": 999,
        "meta_rev_at_epoch": 97233,
        "meta_bstar": 0.0031682,
        "meta_mean_motion_dot": 9.68e-05,
        "meta_mean_motion_ddot": 0,
        "tle_line1": "1 30657U 99025APP 25346.78853519  .00009680  00000+0  31682-2 0  9996",
        "tle_line2": "2 30657  98.8339  84.8190 0016040 344.2907 146.1652 14.38600658972333"
      },
      "geometry": {
        "type": "Point",
        "coordinates": [
          -92.73738814089292,
          9.589578038903332
        ]
      }
    },
    {
      "type": "Feature",
      "properties": {
        "norad_id": 30658,
        "name": "FENGYUN 1C DEB",
        "group": "fengyun-1c-debris",
        "lat": -51.91987580128327,
        "lon": -170.87546709669147,
        "alt_km": 811.9815006911958,
        "timestamp": "2025-12-13T16:48:32.988198+00:00",
        "meta_object_name": "FENGYUN 1C DEB",
        "meta_object_id": "1999-025APQ",
        "meta_epoch": "2025-12-12T01:36:05.059008",
        "meta_mean_motion": 13.87196336,
        "meta_eccentricity": 0.01838687,
        "meta_inclination": 98.4402,
        "meta_ra_of_asc_node": 18.5712,
        "meta_arg_of_pericenter": 229.4011,
        "meta_mean_anomaly": 129.1026,
        "meta_ephemeris_type": 0,
        "meta_classification_type": "U",
        "meta_norad_cat_id": 30658,
        "meta_element_set_no": 999,
        "meta_rev_at_epoch": 94675,
        "meta_bstar": 0.002601853,
        "meta_mean_motion_dot": 3.454e-05,
        "meta_mean_motion_ddot": 0,
        "tle_line1": "1 30658U 99025APQ 25346.06672522  .00003454  00000+0  26019-2 0  9992",
        "tle_line2": "2 30658  98.4402  18.5712 0183868 229.4011 129.1026 13.87196336946757"
      },
      "geometry": {
        "type": "Point",
        "coordinates": [
          -170.87546709669147,
          -51.91987580128327
        ]
      }
    },
    {
      "type": "Feature",
      "properties": {
        "norad_id": 30660,
        "name": "FENGYUN 1C DEB",
        "group": "fengyun-1c-debris",
        "lat": -46.18125425031246,
        "lon": 92.75952472530233,
        "alt_km": 521.2472616080468,
        "timestamp": "2025-12-13T16:48:32.988208+00:00",
        "meta_object_name": "FENGYUN 1C DEB",
        "meta_object_id": "1999-025APS",
        "meta_epoch": "2025-12-12T05:37:45.512256",
        "meta_mean_motion": 14.87530336,
        "meta_eccentricity": 0.01371097,
        "meta_inclination": 98.1386,
        "meta_ra_of_asc_node": 82.6796,
        "meta_arg_of_pericenter": 336.2392,
        "meta_mean_anomaly": 52.5818,
        "meta_ephemeris_type": 0,
        "meta_classification_type": "U",
        "meta_norad_cat_id": 30660,
        "meta_element_set_no": 999,
        "meta_rev_at_epoch": 777,
        "meta_bstar": 0.00095764251,
        "meta_mean_motion_dot": 0.00010277,
        "meta_mean_motion_ddot": 0,
        "tle_line1": "1 30660U 99025APS 25346.23455454  .00010277  00000+0  95764-3 0  9992",
        "tle_line2": "2 30660  98.1386  82.6796 0137109 336.2392  52.5818 14.87530336  7779"
      },
      "geometry": {
        "type": "Point",
        "coordinates": [
          92.75952472530233,
          -46.18125425031246
        ]
      }
    },
    {
      "type": "Feature",
      "properties": {
        "norad_id": 30661,
        "name": "FENGYUN 1C DEB",
        "group": "fengyun-1c-debris",
        "lat": 43.031078421217586,
        "lon": -7.570983146299172,
        "alt_km": 822.217086809499,
        "timestamp": "2025-12-13T16:48:32.988219+00:00",
        "meta_object_name": "FENGYUN 1C DEB",
        "meta_object_id": "1999-025APT",
        "meta_epoch": "2025-12-12T18:13:03.820800",
        "meta_mean_motion": 14.21142217,
        "meta_eccentricity": 0.0144733,
        "meta_inclination": 99.487,
        "meta_ra_of_asc_node": 162.4378,
        "meta_arg_of_pericenter": 45.5664,
        "meta_mean_anomaly": 315.7248,
        "meta_ephemeris_type": 0,
        "meta_classification_type": "U",
        "meta_norad_cat_id": 30661,
        "meta_element_set_no": 999,
        "meta_rev_at_epoch": 97902,
        "meta_bstar": 0.00017969158,
        "meta_mean_motion_dot": 3.84e-06,
        "meta_mean_motion_ddot": 0,
        "tle_line1": "1 30661U 99025APT 25346.75907200  .00000384  00000+0  17969-3 0  9990",
        "tle_line2": "2 30661  99.4870 162.4378 0144733  45.5664 315.7248 14.21142217979020"
      },
      "geometry": {
        "type": "Point",
        "coordinates": [
          -7.570983146299172,
          43.031078421217586
        ]
      }
    },
    {
      "type": "Feature",
      "properties": {
        "norad_id": 30662,
        "name": "FENGYUN 1C DEB",
        "group": "fengyun-1c-debris",
        "lat": -6.382488839246508,
        "lon": -137.0185831096255,
        "alt_km": 817.6341299366295,
        "timestamp": "2025-12-13T16:48:32.988229+00:00",
        "meta_object_name": "FENGYUN 1C DEB",
        "meta_object_id": "1999-025APU",
        "meta_epoch": "2025-12-12T22:12:27.934848",
        "meta_mean_motion": 14.22361091,
        "meta_eccentricity": 0.00329988,
        "meta_inclination": 99.0535,
        "meta_ra_of_asc_node": 43.2077,
        "meta_arg_of_pericenter": 270.4709,
        "meta_mean_anomaly": 269.7689,
        "meta_ephemeris_type": 0,
        "meta_classification_type": "U",
        "meta_norad_cat_id": 30662,
        "meta_element_set_no": 999,
        "meta_rev_at_epoch": 96641,
        "meta_bstar": 0.0022292021,
        "meta_mean_motion_dot": 4.943e-05,
        "meta_mean_motion_ddot": 0,
        "tle_line1": "1 30662U 99025APU 25346.92532332  .00004943  00000+0  22292-2 0  9999",
        "tle_line2": "2 30662  99.0535  43.2077 0032998 270.4709 269.7689 14.22361091966415"
      },
      "geometry": {
        "type": "Point",
        "coordinates": [
          -137.0185831096255,
          -6.382488839246508
        ]
      }
    }
  ]
}